GOES-18
1 51850U 22021A   26025.11716164  .00000000  00000-0  00000+0 0  9997
2 51850   0.0180  90.9269 0000914 244.2899  54.3988  1.00272719  5154
MERIDIAN-10
1 52145U 22030A   26024.41317153  .00000351  00000-0  00000-0 0  9992
2 52145  62.6643 156.0962 6749642 273.0104  17.8739  2.00602029 28141
BRO-6
1 52422U 22047AE  26025.12479774  .00021012  00000-0  47756-3 0  9994
2 52422  97.3479 114.3199 0003828 213.4605 146.6401 15.43025307209043
STEP CUBELAB-II
1 52897U 22065D   26025.21040436  .00001587  00000-0  31875-3 0  9999
2 52897  98.1984 169.7655 0009769 110.6825 249.5425 14.63002105190592
RANDEV
1 52898U 22065E   26025.11183990  .00001872  00000-0  37133-3 0  9992
2 52898  98.1970 169.9565 0009058 111.5755 248.6413 14.63368477190328
SNUGLITE-II
1 52899U 22065F   26024.86335507  .00002366  00000-0  46050-3 0  9994
2 52899  98.1956 170.1653 0008592 111.7197 248.4920 14.63990067190023
MIMAN
1 52900U 22065G   26024.84698025  .00001237  00000-0  25810-3 0  9999
2 52900  98.2011 168.2606 0008730 111.5947 248.6185 14.61627332189506
GREENCUBE (IO-117)
1 53106U 22080B   25051.21822557 -.00000003  00000-0  00000 0 0  9995
2 53106  70.1434 106.3440 0008542  48.0089 312.1297  6.42557744 61200
ROBUSTA 1F (MTCUBE-2)
1 53109U 22080E   26023.28677148 -.00000003  00000-0  00000-0 0  9990
2 53109  70.1620 348.6313 0009141 319.4350  40.5628  6.42583220 82753
BLUEWALKER-3
1 53807U 22111AL  26025.09846023  .00009946  00000-0  28563-3 0  9992
2 53807  53.2312 344.8639 0008460  91.8490 268.3484 15.36471607188199
ELEKTRO-L4
1 55506U 23016A   26024.19628561 -.00000043  00000-0  00000-0 0  9993
2 55506   0.0100  75.9535 0002508 196.1979  87.8061  1.00272215 10893
SHARJAHSAT-1
1 55104U 23001CZ  26025.16596721  .00029571  00000-0  66444-3 0  9994
2 55104  97.3385  92.3931 0005168 260.3785  99.6879 15.43293593170392
METEOR M2-3
1 57166U 23091A   26025.18436608  .00000025  00000-0  29840-4 0  9995
2 57166  98.6312  82.9512 0003338 212.5296 147.5677 14.24032453134167
RESHUCUBE-2 (RS37S)
1 57168U 23091C   26025.14075925  .00016577  00000-0  69400-3 0  9998
2 57168  97.5241  86.9499 0010851 246.8615 113.1478 15.23578218142452
RASSVET 1-1
1 57169U 23091D   26025.15097045  .00012546  00000-0  55753-3 0  9995
2 57169  97.5323  86.5048 0009556 237.9177 122.1131 15.21625693142391
RASSVET 1-2
1 57170U 23091E   26025.15110252  .00012640  00000-0  56182-3 0  9995
2 57170  97.5328  86.5723 0008577 227.8105 132.2404 15.21626023142392
RASSVET 1-3
1 57171U 23091F   26025.15081044  .00012607  00000-0  56016-3 0  9991
2 57171  97.5324  86.5298 0010224 250.0148 109.9986 15.21625550142393
UMKA-1 (RS40S)
1 57172U 23091G   26025.03596469  .00011480  00000-0  55241-3 0  9998
2 57172  97.5270  84.3181 0011925 257.3864 102.6037 15.18881309142260
SATURN (RS43S)
1 57174U 23091J   26025.10836684  .00007137  00000-0  40992-3 0  9995
2 57174  97.5278  80.1941 0012176 283.1077  76.8795 15.12757778141998
CUBEBEL-2 (EU11S)
1 57175U 23091K   26025.10211879  .00019575  00000-0  77614-3 0  9999
2 57175  97.5266  87.2800 0009356 257.9946 102.0243 15.25387414142461
SITRO-AIS-5 (ANOKHIN)
1 57176U 23091L   26025.21725630  .00019602  00000-0  76836-3 0  9993
2 57176  97.5271  87.9870 0011117 244.2201 115.7891 15.25752554142510
ZORKIY-2M
1 57177U 23091M   26025.21691671  .00012132  00000-0  58615-3 0  9997
2 57177  97.5312  84.6971 0012525 253.2281 106.7579 15.18720162142284
CUBESX-HSE-3 (RS42S)
1 57178U 23091N   26025.20823756  .00021931  00000-0  82354-3 0  9992
2 57178  97.5298  89.2608 0010717 234.5241 125.4999 15.27159859142570
PHI-DEMO
1 57181U 23091R   26025.20365156  .00005978  00000-0  33781-3 0  9994
2 57181  97.5290  80.9941 0013980 271.7086  88.2543 15.13395638142055
MONITOR-3 (RS58S)
1 57180U 23091Q   26025.21385795  .00017323  00000-0  70422-3 0  9995
2 57180  97.5293  87.7965 0011376 240.0069 120.0040 15.24556435142485
NORBY-2
1 57179U 23091P   26025.17432869  .00008266  00000-0  44322-3 0  9999
2 57179  97.5315  82.5442 0013894 259.7664 100.2002 15.15151297142122
MONITOR-4 (RS57S)
1 57182U 23091S   26024.61059804  .00014667  00000-0  59602-3 0  9994
2 57182  97.5289  87.1527 0011316 242.7268 117.2817 15.24606577142397
MONITOR-2 (RS39S)
1 57184U 23091U   26025.22245624  .00009284  00000-0  46809-3 0  9995
2 57184  97.5295  84.4266 0010192 247.1435 112.8722 15.17327580142260
SVYATOBOR-1 (RS60S)
1 57187U 23091X   26025.11150877  .00015868  00000-0  66078-3 0  9996
2 57187  97.5301  88.2745 0008920 230.5205 129.5243 15.23786937142504
VIZARD-METEO (RS38S)
1 57189U 23091Z   26025.12887067  .00026893  00000-0  89760-3 0  9990
2 57189  97.5289  92.1369 0007380 213.6986 146.3786 15.31001643142764
NANOZOND-1 (RS49S)
1 57190U 23091AA  26025.19862793  .00143187  00000-0  16728-2 0  9997
2 57190  97.5193 102.4272 0004129 201.6289 158.4794 15.61118018143468
SITRO-AIS-6 (CHIRKIN)
1 57192U 23091AC  26025.18366370  .00010773  00000-0  45087-3 0  9993
2 57192  97.5275  87.7047 0011017 244.0287 115.9815 15.23695302142497
SITRO-AIS-8 (SHCHUKIN)
1 57193U 23091AD  26025.19586014  .00023801  00000-0  87558-3 0  9999
2 57193  97.5264  89.0405 0010461 241.2793 118.7395 15.27824232142586
SITRO-AIS-7 (SHEFFER)
1 57194U 23091AE  26025.16175439  .00010105  00000-0  42580-3 0  9991
2 57194  97.5275  87.5692 0010780 245.5934 114.4178 15.23483109142489
AVION KALUGA 650 (RS24S)
1 57195U 23091AF  26025.19794169  .00010206  00000-0  49660-3 0  9990
2 57195  97.5308  85.3760 0009440 245.6983 114.3265 15.18547770142312
SITRO-AIS-10 (KATYS)
1 57199U 23091AK  26025.17142748  .00029616  00000-0  93569-3 0  9994
2 57199  97.5277  92.7790 0006969 216.4506 143.6262 15.32750181142811
SITRO-AIS-9 (BURDAEV)
1 57201U 23091AM  26025.15954153  .00028926  00000-0  92376-3 0  9995
2 57201  97.5277  92.5906 0006956 216.5677 143.5090 15.32410837142806
UTMN-2 (RS27S)
1 57203U 23091AP  26025.17656559  .00021091  00000-0  77108-3 0  9990
2 57203  97.5290  90.6848 0007960 218.9041 141.1626 15.28075776142672
SITRO-AIS-12 (FARTUSHNY)
1 57204U 23091AQ  26025.17479464  .00029115  00000-0  92286-3 0  9998
2 57204  97.5287  92.9927 0007003 209.2877 150.7973 15.32649769142822
AHMAT-1 (RS41S)
1 57206U 23091AS  26025.18508066  .00062072  00000-0  12628-2 0  9992
2 57206  97.5233  98.0706 0005243 199.5712 160.5337 15.46060790143189
SITRO-AIS-11 (SMIRENNY)
1 57208U 23091AU  26025.15711582  .00029992  00000-0  94133-3 0  9996
2 57208  97.5285  93.1443 0006901 209.0007 151.0853 15.32959083142834
KUZGTU-1 (RS47S)
1 57217U 23091AV  26025.21899003  .00019727  00000-0  76416-3 0  9997
2 57217  97.5274  88.4754 0010772 237.7396 122.2799 15.26149136142544
STRATOSAT-TK1-E (RS52SE)
1 57323U 23091AX  26025.19488968  .00120696  00000-0  16848-2 0  9996
2 57323  97.5216  99.5481 0006537 206.1430 153.9495 15.56441021141152
STRATOSAT-TK1-D (RS52SD)
1 57326U 23091BA  26025.18626943  .00103192  00000-0  16035-2 0  9995
2 57326  97.5205  98.7181 0006071 207.2581 152.8354 15.53568416140946
METEOR M2-4
1 59051U 24039A   26025.17725988  .00000078  00000-0  54514-4 0  9998
2 59051  98.6829 346.4190 0006292 217.3640 142.7101 14.22409536 98934
PARS-1
1 59065U 24039Q   26025.15958874  .00018450  00000-0  43159-3 0  9998
2 59065  97.4692   2.0631 0007842 273.4297  86.6053 15.42168038106576
SITRO-AIS-25
1 59066U 24039R   26025.20582788  .00010036  00000-0  79428-3 0  9992
2 59066  95.3954 136.8996 0150020 107.4531 254.3156 14.92165180103393
SITRO-AIS-26
1 59067U 24039S   26025.18889170  .00010665  00000-0  84722-3 0  9996
2 59067  95.3954 136.8127 0150336 107.9326 253.8354 14.91986903103383
SITRO-AIS-27
1 59068U 24039T   26025.19760275  .00010329  00000-0  81401-3 0  9990
2 59068  95.3956 137.0276 0149513 106.8379 254.9305 14.92369760103403
SITRO-AIS-28
1 59071U 24039U   26025.17835277  .00010119  00000-0  79727-3 0  9992
2 59071  95.3952 137.0541 0149320 106.7965 254.9701 14.92402072103408
SONATE-2
1 59112U 24043Q   26024.94229350  .00042999  00000-0  82202-3 0  9999
2 59112  97.5349 167.9018 0008548  11.8183 348.3266 15.47935623105650
HORS-1
1 57188U 23091Y   26025.17030020  .00016074  00000-0  66830-3 0  9996
2 57188  97.5281  88.1181 0008451 229.8120 130.2377 15.23841416142513
HORS-2
1 57196U 23091AG  26025.19592226  .00022717  00000-0  83566-3 0  9994
2 57196  97.5292  90.5539 0007920 223.6610 136.4003 15.27856856142662
ZORKIY-2M 6
1 59774U 24092B   26025.20500442  .00018018  00000-0  71458-3 0  9997
2 59774  97.6301 150.9301 0009108 328.6761  31.3933 15.25400463 93712
ZORKIY-2M 4
1 59775U 24092C   26025.18213211  .00018225  00000-0  70941-3 0  9996
2 59775  97.6438 152.3350 0009232 331.2892  28.7837 15.26021100 93741
SITRO-AIS-53
1 59776U 24092D   26024.79517190  .00025077  00000-0  83961-3 0  9995
2 59776  97.6382 152.7586 0007581 300.6793  59.3700 15.30916048 93760
SITRO-AIS-54
1 59777U 24092E   26024.80209835  .00024981  00000-0  83828-3 0  9997
2 59777  97.6386 152.7412 0007794 301.1848  58.8627 15.30842136 93764
SITRO-AIS-56
1 59778U 24092F   26025.16558614  .00031385  00000-0  10333-2 0  9996
2 59778  97.6378 153.3019 0007942 299.8320  60.2130 15.31407314 93839
RASSVET 1-4
1 59779U 24092G   26025.17777253  .00000431  00000-0  17797-3 0  9990
2 59779  98.6527 144.5244 0010877 268.4051  91.5886 14.31772816 88439
RASSVET 1-5
1 59780U 24092H   26025.17768733  .00000443  00000-0  18242-3 0  9994
2 59780  98.6532 144.5184 0011241 269.8913  90.0982 14.31771713 88434
RASSVET 1-6
1 59781U 24092J   26025.17634066  .00000448  00000-0  18446-3 0  9997
2 59781  98.6526 144.5218 0011134 270.1526  89.8382 14.31772906 88437
SITRO-AIS-55
1 59809U 24092K   26024.77520705  .00025375  00000-0  85478-3 0  9992
2 59809  97.6376 152.5761 0007953 301.5552  58.4911 15.30712663 93254
MESAT-1
1 60209U 24125G   26025.10323588  .00049865  00000-0  89507-3 0  9990
2 60209  97.2494 240.5988 0014776  29.3870 330.8209 15.49626848 87311
